IRIDIUM 106             
1 41917U 17003A   25264.20761964 -.00000041  00000+0 -21734-4 0  9994
2 41917  86.4028 200.8883 0002485  78.4717 281.6758 14.34217209454658
IRIDIUM 103             
1 41918U 17003B   25264.26470261  .00000136  00000+0  41335-4 0  9990
2 41918  86.4027 200.7650 0002530  94.5279 265.6206 14.34218198454683
IRIDIUM 109             
1 41919U 17003C   25264.20127593 -.00000263  00000+0 -10086-3 0  9993
2 41919  86.4029 200.8467 0002062  86.1831 273.9600 14.34216121454644
IRIDIUM 102             
1 41920U 17003D   25264.23933138  .00000245  00000+0  80341-4 0  9998
2 41920  86.4026 200.7599 0002104  82.7205 277.4230 14.34218511454735
IRIDIUM 105             
1 41921U 17003E   25264.21016172  .00000389  00000+0  13179-3 0  9990
2 41921  86.4046 169.2863 0002241  87.2309 272.9144 14.34209587456580
IRIDIUM 104             
1 41922U 17003F   25264.25201678  .00000138  00000+0  42390-4 0  9992
2 41922  86.4028 200.7931 0002121  93.9537 266.1902 14.34217890454729
IRIDIUM 114             
1 41923U 17003G   25264.25836017  .00000018  00000+0 -48559-6 0  9997
2 41923  86.4030 200.7750 0002275  88.5083 271.6374 14.34217315454702
IRIDIUM 108             
1 41924U 17003H   25264.21688026  .00000007  00000+0 -46759-5 0  9996
2 41924  86.4041 169.1787 0002072  78.5552 281.5877 14.34217672456557
